STARLINK-1957_new
1 17558C 21009L   21326.10296310 -.00008785  00000-0 -58873-3 0  3265
2 17558  53.0516 213.2677 0001919  71.8042  76.7369 15.06399690    18
STARLINK-1957_old
1 27558C 21009L   21325.16804313  .00009058  00000-0  60678-3 0  3255
2 27558  53.0522 217.4647 0001940  71.9979  43.5997 15.06396960    18
